NORAD_CAT_ID,OBJECT_NAME,OBJECT_TYPE,EPOCH,MEAN_MOTION,ECCENTRICITY,INCLINATION,RA_OF_ASC_NODE,ARG_OF_PERICENTER,MEAN_ANOMALY,BSTAR,MEAN_MOTION_DOT,MEAN_MOTION_DDOT,TLE_LINE0,TLE_LINE1,TLE_LINE2,SEMIMAJOR_AXIS,PERIOD,APOGEE,PERIGEE,DECAYED
54161.0,STARLINK-5269,PAYLOAD,2024-08-14 21:23:33,15.08853301,0.0001662,53.2165,61.1284,103.657,256.4607,0.0012918,0.00020338,0.0,0 STARLINK-5269,1 54161U 22141E   24227.89135771  .00020338  00000-0  12918-2 0  9994,2 54161  53.2165  61.1284 0001662 103.6570 256.4607 15.08853301 99394,6917.84,95.437,540.854,538.555,0.0
54161.0,STARLINK-5269,PAYLOAD,2024-08-15 19:38:56,15.08866141,0.0001672,53.2169,56.9667,103.5665,256.5513,0.00077738,0.00012114,0.0,0 STARLINK-5269,1 54161U 22141E   24228.81870722  .00012114  00000-0  77738-3 0  9994,2 54161  53.2169  56.9667 0001672 103.5665 256.5513 15.08866141 99539,6917.8,95.436,540.822,538.509,0.0
54161.0,STARLINK-5269,PAYLOAD,2024-08-16 05:11:14,15.08870605,0.0001634,53.2167,55.1823,105.1944,254.9229,0.00063611,9.859e-05,0.0,0 STARLINK-5269,1 54161U 22141E   24229.21614041  .00009859  00000-0  63611-3 0  9996,2 54161  53.2167  55.1823 0001634 105.1944 254.9229 15.08870605 99590,6917.787,95.436,540.782,538.521,0.0
54161.0,STARLINK-5269,PAYLOAD,2024-08-17 20:55:53,15.08848953,0.0001886,53.2157,47.744,78.7132,281.4072,0.00064399,9.978e-05,0.0,0 STARLINK-5269,1 54161U 22141E   24230.87214723  .00009978  00000-0  64399-3 0  9999,2 54161  53.2157  47.7440 0001886  78.7132 281.4072 15.08848953 99844,6917.853,95.437,541.023,538.413,0.0
54161.0,STARLINK-5269,PAYLOAD,2024-08-18 01:42:02,15.08846623,0.0001203,53.2164,46.8544,94.8812,265.2317,0.00043248,6.603e-05,0.0,0 STARLINK-5269,1 54161U 22141E   24231.07086355  .00006603  00000-0  43248-3 0  9992,2 54161  53.2164  46.8544 0001203  94.8812 265.2317 15.08846623 99871,6917.86,95.437,540.557,538.893,0.0
54161.0,STARLINK-5269,PAYLOAD,2024-08-18 19:11:16,15.08854738,0.0001469,53.2174,43.5846,73.3029,286.8124,0.00019858,2.875e-05,0.0,0 STARLINK-5269,1 54161U 22141E   24231.79950208  .00002875  00000-0  19858-3 0  9995,2 54161  53.2174  43.5846 0001469  73.3029 286.8124 15.08854738 99980,6917.835,95.437,540.717,538.684,0.0
54161.0,STARLINK-5269,PAYLOAD,2024-08-19 04:43:35,15.08855763,0.0001379,53.217,41.7997,78.3968,281.7179,0.00037867,5.746e-05,0.0,0 STARLINK-5269,1 54161U 22141E   24232.19693793  .00005746  00000-0  37867-3 0  9993,2 54161  53.2170  41.7997 0001379  78.3968 281.7179 15.08855763100043,6917.832,95.437,540.651,538.743,0.0
54161.0,STARLINK-5269,PAYLOAD,2024-08-19 19:02:04,15.08835701,0.0001359,53.2172,39.1234,78.4512,281.6632,-5.962e-05,-1.237e-05,0.0,0 STARLINK-5269,1 54161U 22141E   24232.79310500 -.00001237  00000-0 -59620-4 0  9996,2 54161  53.2172  39.1234 0001359  78.4512 281.6632 15.08835701100137,6917.894,95.438,540.699,538.818,0.0
54161.0,STARLINK-5269,PAYLOAD,2024-08-20 04:34:23,15.08842688,0.000175,53.2167,37.339,80.2964,279.8225,0.00019299,2.785e-05,0.0,0 STARLINK-5269,1 54161U 22141E   24233.19054594  .00002785  00000-0  19299-3 0  9993,2 54161  53.2167  37.3390 0001750  80.2964 279.8225 15.08842688100196,6917.872,95.437,540.948,538.527,0.0
54161.0,STARLINK-5269,PAYLOAD,2024-08-20 17:17:28,15.08845739,0.0001644,53.2174,34.9585,87.6372,272.4809,0.00054496,8.397e-05,0.0,0 STARLINK-5269,1 54161U 22141E   24233.72046624  .00008397  00000-0  54496-3 0  9990,2 54161  53.2174  34.9585 0001644  87.6372 272.4809 15.08845739100275,6917.863,95.437,540.865,538.591,0.0
54161.0,STARLINK-5269,PAYLOAD,2024-08-21 10:46:42,15.0884687,0.0001599,53.2161,31.6895,81.196,278.9213,0.00036325,5.499e-05,0.0,0 STARLINK-5269,1 54161U 22141E   24234.44910636  .00005499  00000-0  36325-3 0  9994,2 54161  53.2161  31.6895 0001599  81.1960 278.9213 15.08846870100389,6917.859,95.437,540.831,538.618,0.0
54161.0,STARLINK-5269,PAYLOAD,2024-08-21 13:57:29,15.08843081,0.0001769,53.2177,31.0855,107.2323,252.8863,0.00018667,2.684e-05,0.0,0 STARLINK-5269,1 54161U 22141E   24234.58158585  .00002684  00000-0  18667-3 0  9998,2 54161  53.2177  31.0855 0001769 107.2323 252.8863 15.08843081100404,6917.871,95.437,540.96,538.512,0.0
54161.0,STARLINK-5269,PAYLOAD,2024-08-21 17:08:15,15.08836449,0.0001432,53.2174,30.4942,105.0886,255.0265,5.708e-05,6.21e-06,0.0,0 STARLINK-5269,1 54161U 22141E   24234.71406799  .00000621  00000-0  57080-4 0  9998,2 54161  53.2174  30.4942 0001432 105.0886 255.0265 15.08836449100421,6917.891,95.438,540.747,538.766,0.0
